{
  "type": "FeatureCollection",
  "features": [
    {
      "type": "Feature",
      "properties": {
        "norad_id": 29857,
        "name": "FENGYUN 1C DEB",
        "group": "fengyun-1c-debris",
        "lat": 7.912844074428615,
        "lon": -1.8164487677288075,
        "alt_km": 955.9045637248319,
        "timestamp": "2025-12-18T15:47:11.494900+00:00",
        "meta_object_name": "FENGYUN 1C DEB",
        "meta_object_id": "1999-025FB",
        "meta_epoch": "2025-12-18T00:06:31.999392",
        "meta_mean_motion": 13.81899578,
        "meta_eccentricity": 0.01927552,
        "meta_inclination": 98.4223,
        "meta_ra_of_asc_node": 358.7795,
        "meta_arg_of_pericenter": 280.017,
        "meta_mean_anomaly": 77.9285,
        "meta_ephemeris_type": 0,
        "meta_classification_type": "U",
        "meta_norad_cat_id": 29857,
        "meta_element_set_no": 999,
        "meta_rev_at_epoch": 94848,
        "meta_bstar": 0.0013356828,
        "meta_mean_motion_dot": 1.611e-05,
        "meta_mean_motion_ddot": 0,
        "tle_line1": "1 29857U 99025FB  25352.00453703  .00001611  00000+0  13357-2 0  9994",
        "tle_line2": "2 29857  98.4223 358.7795 0192755 280.0170  77.9285 13.81899578948482"
      },
      "geometry": {
        "type": "Point",
        "coordinates": [
          -1.8164487677288075,
          7.912844074428615
        ]
      }
    },
    {
      "type": "Feature",
      "properties": {
        "norad_id": 29858,
        "name": "FENGYUN 1C DEB",
        "group": "fengyun-1c-debris",
        "lat": -2.7133739825244176,
        "lon": -86.32800559395324,
        "alt_km": 1074.4889962724337,
        "timestamp": "2025-12-18T15:47:11.494910+00:00",
        "meta_object_name": "FENGYUN 1C DEB",
        "meta_object_id": "1999-025FC",
        "meta_epoch": "2025-12-18T06:19:57.654336",
        "meta_mean_motion": 13.77799986,
        "meta_eccentricity": 0.01979837,
        "meta_inclination": 99.2131,
        "meta_ra_of_asc_node": 93.7304,
        "meta_arg_of_pericenter": 49.6697,
        "meta_mean_anomaly": 338.5314,
        "meta_ephemeris_type": 0,
        "meta_classification_type": "U",
        "meta_norad_cat_id": 29858,
        "meta_element_set_no": 999,
        "meta_rev_at_epoch": 94630,
        "meta_bstar": 0.00088365477,
        "meta_mean_motion_dot": 9.8e-06,
        "meta_mean_motion_ddot": 0,
        "tle_line1": "1 29858U 99025FC  25352.26386174  .00000980  00000+0  88365-3 0  9990",
        "tle_line2": "2 29858  99.2131  93.7304 0197983  49.6697 338.5314 13.77799986946308"
      },
      "geometry": {
        "type": "Point",
        "coordinates": [
          -86.32800559395324,
          -2.7133739825244176
        ]
      }
    },
    {
      "type": "Feature",
      "properties": {
        "norad_id": 29859,
        "name": "FENGYUN 1C DEB",
        "group": "fengyun-1c-debris",
        "lat": 16.779403087335197,
        "lon": -175.90262674362566,
        "alt_km": 1202.5004727854657,
        "timestamp": "2025-12-18T15:47:11.494921+00:00",
        "meta_object_name": "FENGYUN 1C DEB",
        "meta_object_id": "1999-025FD",
        "meta_epoch": "2025-12-17T23:58:13.667520",
        "meta_mean_motion": 13.74063246,
        "meta_eccentricity": 0.02947115,
        "meta_inclination": 98.3351,
        "meta_ra_of_asc_node": 186.0549,
        "meta_arg_of_pericenter": 198.749,
        "meta_mean_anomaly": 160.2622,
        "meta_ephemeris_type": 0,
        "meta_classification_type": "U",
        "meta_norad_cat_id": 29859,
        "meta_element_set_no": 999,
        "meta_rev_at_epoch": 94052,
        "meta_bstar": 0.0017717472,
        "meta_mean_motion_dot": 2.243e-05,
        "meta_mean_motion_ddot": 0,
        "tle_line1": "1 29859U 99025FD  25351.99876930  .00002243  00000+0  17717-2 0  9990",
        "tle_line2": "2 29859  98.3351 186.0549 0294711 198.7490 160.2622 13.74063246940524"
      },
      "geometry": {
        "type": "Point",
        "coordinates": [
          -175.90262674362566,
          16.779403087335197
        ]
      }
    },
    {
      "type": "Feature",
      "properties": {
        "norad_id": 29860,
        "name": "FENGYUN 1C DEB",
        "group": "fengyun-1c-debris",
        "lat": -49.67530665371027,
        "lon": -164.26412606502996,
        "alt_km": 995.2747504278905,
        "timestamp": "2025-12-18T15:47:11.494931+00:00",
        "meta_object_name": "FENGYUN 1C DEB",
        "meta_object_id": "1999-025FE",
        "meta_epoch": "2025-12-17T16:36:01.130400",
        "meta_mean_motion": 13.77555081,
        "meta_eccentricity": 0.02211336,
        "meta_inclination": 98.6176,
        "meta_ra_of_asc_node": 25.15,
        "meta_arg_of_pericenter": 329.8446,
        "meta_mean_anomaly": 154.6018,
        "meta_ephemeris_type": 0,
        "meta_classification_type": "U",
        "meta_norad_cat_id": 29860,
        "meta_element_set_no": 999,
        "meta_rev_at_epoch": 94207,
        "meta_bstar": 0.0019739598,
        "meta_mean_motion_dot": 2.317e-05,
        "meta_mean_motion_ddot": 0,
        "tle_line1": "1 29860U 99025FE  25351.69167975  .00002317  00000+0  19740-2 0  9991",
        "tle_line2": "2 29860  98.6176  25.1500 0221133 329.8446 154.6018 13.77555081942074"
      },
      "geometry": {
        "type": "Point",
        "coordinates": [
          -164.26412606502996,
          -49.67530665371027
        ]
      }
    },
    {
      "type": "Feature",
      "properties": {
        "norad_id": 29865,
        "name": "FENGYUN 1C DEB",
        "group": "fengyun-1c-debris",
        "lat": 41.75177996061662,
        "lon": -103.9693610124902,
        "alt_km": 602.771137347866,
        "timestamp": "2025-12-18T15:47:11.494941+00:00",
        "meta_object_name": "FENGYUN 1C DEB",
        "meta_object_id": "1999-025FK",
        "meta_epoch": "2025-12-18T06:24:48.227040",
        "meta_mean_motion": 14.82653721,
        "meta_eccentricity": 0.01165496,
        "meta_inclination": 98.9212,
        "meta_ra_of_asc_node": 263.6552,
        "meta_arg_of_pericenter": 123.9105,
        "meta_mean_anomaly": 356.5368,
        "meta_ephemeris_type": 0,
        "meta_classification_type": "U",
        "meta_norad_cat_id": 29865,
        "meta_element_set_no": 999,
        "meta_rev_at_epoch": 840,
        "meta_bstar": 0.00053381869,
        "meta_mean_motion_dot": 4.775e-05,
        "meta_mean_motion_ddot": 0,
        "tle_line1": "1 29865U 99025FK  25352.26722485  .00004775  00000+0  53382-3 0  9994",
        "tle_line2": "2 29865  98.9212 263.6552 0116549 123.9105 356.5368 14.82653721  8406"
      },
      "geometry": {
        "type": "Point",
        "coordinates": [
          -103.9693610124902,
          41.75177996061662
        ]
      }
    },
    {
      "type": "Feature",
      "properties": {
        "norad_id": 29866,
        "name": "FENGYUN 1C DEB",
        "group": "fengyun-1c-debris",
        "lat": 39.96568969943079,
        "lon": 165.05283034974747,
        "alt_km": 599.053464436367,
        "timestamp": "2025-12-18T15:47:11.494951+00:00",
        "meta_object_name": "FENGYUN 1C DEB",
        "meta_object_id": "1999-025FL",
        "meta_epoch": "2025-12-17T22:59:58.268256",
        "meta_mean_motion": 14.64232125,
        "meta_eccentricity": 0.01946879,
        "meta_inclination": 98.0372,
        "meta_ra_of_asc_node": 337.5689,
        "meta_arg_of_pericenter": 198.3309,
        "meta_mean_anomaly": 218.1808,
        "meta_ephemeris_type": 0,
        "meta_classification_type": "U",
        "meta_norad_cat_id": 29866,
        "meta_element_set_no": 999,
        "meta_rev_at_epoch": 403,
        "meta_bstar": 0.00019343418,
        "meta_mean_motion_dot": 1.285e-05,
        "meta_mean_motion_ddot": 0,
        "tle_line1": "1 29866U 99025FL  25351.95831329  .00001285  00000+0  19343-3 0  9990",
        "tle_line2": "2 29866  98.0372 337.5689 0194687 198.3309 218.1808 14.64232125  4036"
      },
      "geometry": {
        "type": "Point",
        "coordinates": [
          165.05283034974747,
          39.96568969943079
        ]
      }
    },
    {
      "type": "Feature",
      "properties": {
        "norad_id": 29868,
        "name": "FENGYUN 1C DEB",
        "group": "fengyun-1c-debris",
        "lat": -75.68502066112653,
        "lon": 71.53404535146291,
        "alt_km": 576.6701967253011,
        "timestamp": "2025-12-18T15:47:11.494962+00:00",
        "meta_object_name": "FENGYUN 1C DEB",
        "meta_object_id": "1999-025FN",
        "meta_epoch": "2025-12-18T01:46:28.212960",
        "meta_mean_motion": 14.7849188,
        "meta_eccentricity": 0.01961429,
        "meta_inclination": 97.9499,
        "meta_ra_of_asc_node": 37.7521,
        "meta_arg_of_pericenter": 346.783,
        "meta_mean_anomaly": 71.5549,
        "meta_ephemeris_type": 0,
        "meta_classification_type": "U",
        "meta_norad_cat_id": 29868,
        "meta_element_set_no": 999,
        "meta_rev_at_epoch": 374,
        "meta_bstar": 0.00055734482,
        "meta_mean_motion_dot": 5.563e-05,
        "meta_mean_motion_ddot": 0,
        "tle_line1": "1 29868U 99025FN  25352.07393765  .00005563  00000+0  55734-3 0  9990",
        "tle_line2": "2 29868  97.9499  37.7521 0196142 346.7830  71.5549 14.78491880  3746"
      },
      "geometry": {
        "type": "Point",
        "coordinates": [
          71.53404535146291,
          -75.68502066112653
        ]
      }
    }
  ]
}